{"type": "FeatureCollection", "features": [ {"type": "Feature", "properties": {"norad_id": 58662, "name": "TIANMU-1 21", "group": "weather", "lat": -23.059092797590655, "lon": 112.09321319236638, "alt_km": 477.9009253058166, "timestamp": "2025-12-21T11:31:42.483702+00:00", "meta": {"OBJECT_NAME": "TIANMU-1 21", "OBJECT_ID": "2023-208C", "EPOCH": "2025-12-21T05:21:30.160800", "MEAN_MOTION": 15.31717351, "ECCENTRICITY": 0.0006241, "INCLINATION": 97.4382, "RA_OF_ASC_NODE": 108.647, "ARG_OF_PERICENTER": 224.5757, "MEAN_ANOMALY": 135.4983, "EPHEMERIS_TYPE": 0, "CLASSIFICATION_TYPE": "U", "NORAD_CAT_ID": 58662, "ELEMENT_SET_NO": 999, "REV_AT_EPOCH": 11029, "BSTAR": 0.00025971, "MEAN_MOTION_DOT": 7.88e-05, "MEAN_MOTION_DDOT": 0}, "tle": {"line1": "1 58662U 23208C   25355.22326575  .00007880  00000+0  25971-3 0  9993", "line2": "2 58662  97.4382 108.6470 0006241 224.5757 135.4983 15.31717351110293"}}, "geometry": {"type": "Point", "coordinates": [112.09321319236638, -23.059092797590655]}}, {"type": "Feature", "properties": {"norad_id": 58663, "name": "TIANMU-1 22", "group": "weather", "lat": 45.023446817213895, "lon": -65.93004305237287, "alt_km": 479.3231172118458, "timestamp": "2025-12-21T11:31:42.483712+00:00", "meta": {"OBJECT_NAME": "TIANMU-1 22", "OBJECT_ID": "2023-208D", "EPOCH": "2025-12-21T04:39:14.440032", "MEAN_MOTION": 15.27735, "ECCENTRICITY": 0.0002774, "INCLINATION": 97.4389, "RA_OF_ASC_NODE": 106.2703, "ARG_OF_PERICENTER": 242.0477, "MEAN_ANOMALY": 118.0481, "EPHEMERIS_TYPE": 0, "CLASSIFICATION_TYPE": "U", "NORAD_CAT_ID": 58663, "ELEMENT_SET_NO": 999, "REV_AT_EPOCH": 11012, "BSTAR": 0.0002337, "MEAN_MOTION_DOT": 6.258e-05, "MEAN_MOTION_DDOT": 0}, "tle": {"line1": "1 58663U 23208D   25355.19391713  .00006258  00000+0  23370-3 0  9995", "line2": "2 58663  97.4389 106.2703 0002774 242.0477 118.0481 15.27735000110123"}}, "geometry": {"type": "Point", "coordinates": [-65.93004305237287, 45.023446817213895]}}, {"type": "Feature", "properties": {"norad_id": 58700, "name": "TIANMU-1 15", "group": "weather", "lat": 16.606887256744344, "lon": -0.8427511526591354, "alt_km": 492.95091756109287, "timestamp": "2025-12-21T11:31:42.483726+00:00", "meta": {"OBJECT_NAME": "TIANMU-1 15", "OBJECT_ID": "2024-004A", "EPOCH": "2025-12-21T04:30:48.414240", "MEAN_MOTION": 15.24508356, "ECCENTRICITY": 0.0005962, "INCLINATION": 97.4622, "RA_OF_ASC_NODE": 176.6258, "ARG_OF_PERICENTER": 254.2218, "MEAN_ANOMALY": 105.8363, "EPHEMERIS_TYPE": 0, "CLASSIFICATION_TYPE": "U", "NORAD_CAT_ID": 58700, "ELEMENT_SET_NO": 999, "REV_AT_EPOCH": 10863, "BSTAR": 0.00020192, "MEAN_MOTION_DOT": 4.894e-05, "MEAN_MOTION_DDOT": 0}, "tle": {"line1": "1 58700U 24004A   25355.18806035  .00004894  00000+0  20192-3 0  9992", "line2": "2 58700  97.4622 176.6258 0005962 254.2218 105.8363 15.24508356108636"}}, "geometry": {"type": "Point", "coordinates": [-0.8427511526591354, 16.606887256744344]}}, {"type": "Feature", "properties": {"norad_id": 58701, "name": "TIANMU-1 16", "group": "weather", "lat": -64.5549654191906, "lon": -19.678452467966085, "alt_km": 496.4949339548657, "timestamp": "2025-12-21T11:31:42.483737+00:00", "meta": {"OBJECT_NAME": "TIANMU-1 16", "OBJECT_ID": "2024-004B", "EPOCH": "2025-12-21T04:09:11.800800", "MEAN_MOTION": 15.24535476, "ECCENTRICITY": 0.0004334, "INCLINATION": 97.456, "RA_OF_ASC_NODE": 175.9926, "ARG_OF_PERICENTER": 257.9068, "MEAN_ANOMALY": 102.1684, "EPHEMERIS_TYPE": 0, "CLASSIFICATION_TYPE": "U", "NORAD_CAT_ID": 58701, "ELEMENT_SET_NO": 999, "REV_AT_EPOCH": 10863, "BSTAR": 0.00019799, "MEAN_MOTION_DOT": 4.801e-05, "MEAN_MOTION_DDOT": 0}, "tle": {"line1": "1 58701U 24004B   25355.17305325  .00004801  00000+0  19799-3 0  9997", "line2": "2 58701  97.4560 175.9926 0004334 257.9068 102.1684 15.24535476108636"}}, "geometry": {"type": "Point", "coordinates": [-19.678452467966085, -64.5549654191906]}}, {"type": "Feature", "properties": {"norad_id": 58702, "name": "TIANMU-1 17", "group": "weather", "lat": -28.37818562647384, "lon": -179.22813437050934, "alt_km": 497.2690825768477, "timestamp": "2025-12-21T11:31:42.483747+00:00", "meta": {"OBJECT_NAME": "TIANMU-1 17", "OBJECT_ID": "2024-004C", "EPOCH": "2025-12-21T05:21:10.750176", "MEAN_MOTION": 15.245796, "ECCENTRICITY": 0.0003514, "INCLINATION": 97.4596, "RA_OF_ASC_NODE": 176.4568, "ARG_OF_PERICENTER": 259.2178, "MEAN_ANOMALY": 100.8664, "EPHEMERIS_TYPE": 0, "CLASSIFICATION_TYPE": "U", "NORAD_CAT_ID": 58702, "ELEMENT_SET_NO": 999, "REV_AT_EPOCH": 10863, "BSTAR": 0.00019196, "MEAN_MOTION_DOT": 4.658e-05, "MEAN_MOTION_DDOT": 0}, "tle": {"line1": "1 58702U 24004C   25355.22304109  .00004658  00000+0  19196-3 0  9994", "line2": "2 58702  97.4596 176.4568 0003514 259.2178 100.8664 15.24579600108630"}}, "geometry": {"type": "Point", "coordinates": [-179.22813437050934, -28.37818562647384]}}, {"type": "Feature", "properties": {"norad_id": 58703, "name": "TIANMU-1 18", "group": "weather", "lat": 61.54247875264295, "lon": 162.91710549586702, "alt_km": 488.04197237105836, "timestamp": "2025-12-21T11:31:42.483756+00:00", "meta": {"OBJECT_NAME": "TIANMU-1 18", "OBJECT_ID": "2024-004D", "EPOCH": "2025-12-21T04:57:16.060896", "MEAN_MOTION": 15.24564102, "ECCENTRICITY": 0.0002859, "INCLINATION": 97.4613, "RA_OF_ASC_NODE": 176.6374, "ARG_OF_PERICENTER": 256.9155, "MEAN_ANOMALY": 103.1764, "EPHEMERIS_TYPE": 0, "CLASSIFICATION_TYPE": "U", "NORAD_CAT_ID": 58703, "ELEMENT_SET_NO": 999, "REV_AT_EPOCH": 10863, "BSTAR": 0.00019248, "MEAN_MOTION_DOT": 4.668e-05, "MEAN_MOTION_DDOT": 0}, "tle": {"line1": "1 58703U 24004D   25355.20643589  .00004668  00000+0  19248-3 0  9990", "line2": "2 58703  97.4613 176.6374 0002859 256.9155 103.1764 15.24564102108636"}}, "geometry": {"type": "Point", "coordinates": [162.91710549586702, 61.54247875264295]}}, {"type": "Feature", "properties": {"norad_id": 58990, "name": "INSAT-3DS", "group": "weather", "lat": -0.0492412935185158, "lon": -14.663428377017013, "alt_km": 35784.583163868614, "timestamp": "2025-12-21T11:31:42.483768+00:00", "meta": {"OBJECT_NAME": "INSAT-3DS", "OBJECT_ID": "2024-033A", "EPOCH": "2025-12-20T23:53:35.753280", "MEAN_MOTION": 1.0027214, "ECCENTRICITY": 0.00011, "INCLINATION": 0.054, "RA_OF_ASC_NODE": 103.3228, "ARG_OF_PERICENTER": 169.8539, "MEAN_ANOMALY": 257.1496, "EPHEMERIS_TYPE": 0, "CLASSIFICATION_TYPE": "U", "NORAD_CAT_ID": 58990, "ELEMENT_SET_NO": 999, "REV_AT_EPOCH": 4528, "BSTAR": 0, "MEAN_MOTION_DOT": -1.33e-06, "MEAN_MOTION_DDOT": 0}, "tle": {"line1": "1 58990U 24033A   25354.99555270 -.00000133  00000+0  00000+0 0  9990", "line2": "2 58990   0.0540 103.3228 0001100 169.8539 257.1496  1.00272140 45284"}}, "geometry": {"type": "Point", "coordinates": [-14.663428377017013, -0.0492412935185158]}}, {"type": "Feature", "properties": {"norad_id": 59051, "name": "METEOR-M2 4", "group": "weather", "lat": -81.28959720456926, "lon": 46.812185705559486, "alt_km": 822.4455290686756, "timestamp": "2025-12-21T11:31:42.483824+00:00", "meta": {"OBJECT_NAME": "METEOR-M2 4", "OBJECT_ID": "2024-039A", "EPOCH": "2025-12-21T03:30:45.525600", "MEAN_MOTION": 14.22402488, "ECCENTRICITY": 0.0006592, "INCLINATION": 98.6778, "RA_OF_ASC_NODE": 311.9238, "ARG_OF_PERICENTER": 333.6948, "MEAN_ANOMALY": 26.3894, "EPHEMERIS_TYPE": 0, "CLASSIFICATION_TYPE": "U", "NORAD_CAT_ID": 59051, "ELEMENT_SET_NO": 999, "REV_AT_EPOCH": 9395, "BSTAR": 2.5432e-05, "MEAN_MOTION_DOT": 1.3e-07, "MEAN_MOTION_DDOT": 0}, "tle": {"line1": "1 59051U 24039A   25355.14636025  .00000013  00000+0  25432-4 0  9998", "line2": "2 59051  98.6778 311.9238 0006592 333.6948  26.3894 14.22402488 93955"}}, "geometry": {"type": "Point", "coordinates": [46.812185705559486, -81.28959720456926]}}, {"type": "Feature", "properties": {"norad_id": 60133, "name": "GOES 19", "group": "weather", "lat": -0.0022519329552512218, "lon": -171.98483730860886, "alt_km": 35789.77455177428, "timestamp": "2025-12-21T11:31:42.483839+00:00", "meta": {"OBJECT_NAME": "GOES 19", "OBJECT_ID": "2024-119A", "EPOCH": "2025-12-21T02:34:02.741088", "MEAN_MOTION": 1.00270648, "ECCENTRICITY": 0.0001095, "INCLINATION": 0.0046, "RA_OF_ASC_NODE": 226.7405, "ARG_OF_PERICENTER": 97.9425, "MEAN_ANOMALY": 88.5672, "EPHEMERIS_TYPE": 0, "CLASSIFICATION_TYPE": "U", "NORAD_CAT_ID": 60133, "ELEMENT_SET_NO": 999, "REV_AT_EPOCH": 517, "BSTAR": 0, "MEAN_MOTION_DOT": -2.25e-06, "MEAN_MOTION_DDOT": 0}, "tle": {"line1": "1 60133U 24119A   25355.10697617 -.00000225  00000+0  00000+0 0  9995", "line2": "2 60133   0.0046 226.7405 0001095  97.9425  88.5672  1.00270648  5179"}}, "geometry": {"type": "Point", "coordinates": [-171.98483730860886, -0.0022519329552512218]}}, {"type": "Feature", "properties": {"norad_id": 65815, "name": "FENGYUN 3H", "group": "weather", "lat": 68.07959158317779, "lon": -87.37254701799348, "alt_km": 818.5768256945657, "timestamp": "2025-12-21T11:31:42.483850+00:00", "meta": {"OBJECT_NAME": "FENGYUN 3H", "OBJECT_ID": "2025-219A", "EPOCH": "2025-12-21T02:44:41.957664", "MEAN_MOTION": 14.19906726, "ECCENTRICITY": 7.45e-05, "INCLINATION": 98.6596, "RA_OF_ASC_NODE": 294.5232, "ARG_OF_PERICENTER": 105.8145, "MEAN_ANOMALY": 254.3114, "EPHEMERIS_TYPE": 0, "CLASSIFICATION_TYPE": "U", "NORAD_CAT_ID": 65815, "ELEMENT_SET_NO": 999, "REV_AT_EPOCH": 1211, "BSTAR": 4.2254e-05, "MEAN_MOTION_DOT": 4.6e-07, "MEAN_MOTION_DDOT": 0}, "tle": {"line1": "1 65815U 25219A   25355.11437451  .00000046  00000+0  42254-4 0  9990", "line2": "2 65815  98.6596 294.5232 0000745 105.8145 254.3114 14.19906726 12117"}}, "geometry": {"type": "Point", "coordinates": [-87.37254701799348, 68.07959158317779]}}]}